NUSAT-49 (KLARA DAN VO*)
1 60500U 24149AJ  26068.79810190  .00012912  00000+0  43568-3 0  9991
2 60500  97.3807 150.7380 0001132 286.7761  73.3356 15.30828857 86935
STARLINK-35368          
1 65830U 25221H   26068.27415723  .00025777  00000+0  87948-3 0  9993
2 65830  53.1586  90.7083 0001317  62.0331 298.0803 15.30197286 25971
